OBJECT_NAME,OBJECT_ID,EPOCH,MEAN_MOTION,ECCENTRICITY,INCLINATION,RA_OF_ASC_NODE,ARG_OF_PERICENTER,MEAN_ANOMALY,EPHEMERIS_TYPE,CLASSIFICATION_TYPE,NORAD_CAT_ID,ELEMENT_SET_NO,REV_AT_EPOCH,BSTAR,MEAN_MOTION_DOT,MEAN_MOTION_DDOT
STARLINK-36944,2026-040Q,2026-06-25T19:33:39.275424,15.33447538,.00014236,97.2824,125.3865,97.7813,262.3591,0,U,68029,999,1803,.4298837E-3,.1383E-3,0
STARLINK-36942,2026-040R,2026-06-25T19:29:44.826432,15.33462536,.00017772,97.2825,125.3906,83.6844,276.4601,0,U,68030,999,1803,.10573584E-2,.34235E-3,0
STARLINK-36913,2026-040S,2026-06-25T19:25:51.271680,15.33482011,.00014719,97.2834,125.3889,90.9069,269.2342,0,U,68031,999,1803,.1180515E-2,.38275E-3,0
STARLINK-36935,2026-040T,2026-06-25T20:28:28.587360,15.33453412,.0001549,97.2847,125.4910,88.0194,272.1226,0,U,68032,999,1804,.8409402E-3,.27179E-3,0
STARLINK-36947,2026-040U,2026-06-25T19:21:55.066176,15.33458686,.00015509,97.2821,125.3996,86.4112,273.7308,0,U,68033,999,1803,.92519004E-3,.29925E-3,0
STARLINK-36939,2026-040V,2026-06-25T20:40:13.317600,15.33463166,.00015908,97.2830,125.4734,86.7398,273.4026,0,U,68034,999,1804,.10919651E-2,.35364E-3,0
STARLINK-36943,2026-040W,2026-06-25T20:32:23.386272,15.33454239,.00016345,97.2818,125.4877,91.5038,268.6392,0,U,68035,999,1917,.96980294E-3,.31374E-3,0
STARLINK-36906,2026-040X,2026-06-25T20:44:08.115648,15.33464007,.0001617,97.2838,125.4666,87.1738,272.9689,0,U,68036,999,1804,.10047608E-2,.32522E-3,0
STARLINK-36388,2026-040Y,2026-06-25T20:36:18.326880,15.33456911,.00015106,97.2828,125.4780,88.9611,271.1805,0,U,68037,999,1804,.97577816E-3,.31571E-3,0
STARLINK-36895,2026-040Z,2026-06-25T20:48:03.139200,15.33469838,.00018234,97.2822,125.4715,88.4751,271.6700,0,U,68038,999,1804,.10772969E-2,.34893E-3,0
STARLINK-36373,2026-040AA,2026-06-25T20:51:57.973536,15.33470017,.00017157,97.2826,125.4600,90.7658,269.3781,0,U,68039,999,1804,.10864637E-2,.35192E-3,0
STARLINK-36711,2026-041A,2026-06-25T15:19:16.815648,15.34410141,.00012741,53.1584,265.7859,84.3463,275.7685,0,U,68040,999,1795,.82798911E-3,.27711E-3,0
STARLINK-36825,2026-041B,2026-06-25T14:54:59.868864,15.34426648,.00010925,53.1586,265.6601,78.7086,281.4039,0,U,68041,999,1795,.74392981E-3,.24863E-3,0
STARLINK-36925,2026-041C,2026-06-25T15:20:02.798592,15.34456095,.00010676,53.1589,267.9191,82.2103,277.9021,0,U,68042,999,1792,.8563246E-3,.28718E-3,0
STARLINK-36902,2026-041D,2026-06-25T13:25:02.472096,15.34425741,.0000974,53.1572,268.1228,111.3368,248.7739,0,U,68043,999,1791,.75577E-3,.25266E-3,0
STARLINK-36966,2026-041E,2026-06-25T15:01:03.376128,15.34423052,.00010538,53.1581,265.7059,93.4048,266.7076,0,U,68044,999,1795,.98824075E-3,.33185E-3,0
STARLINK-36864,2026-041F,2026-06-25T15:31:21.262368,15.34425254,.00012001,53.1586,265.8347,85.1319,274.9820,0,U,68045,999,1795,.79813073E-3,.26708E-3,0
STARLINK-36321,2026-041G,2026-06-25T16:14:26.810880,15.34433547,.00011149,53.1580,267.4366,86.1624,273.9506,0,U,68046,999,1793,.84433572E-3,.28289E-3,0
STARLINK-36181,2026-041H,2026-06-25T15:53:14.716896,15.34366740,.00009996,53.1583,267.3362,77.4769,282.6346,0,U,68047,999,1793,.69189938E-3,.23048E-3,0
STARLINK-36318,2026-041J,2026-06-25T16:04:40.855584,15.34427277,.0001197,53.1578,265.9728,85.4188,274.6952,0,U,68048,999,1795,.76518483E-3,.25587E-3,0
STARLINK-36885,2026-041K,2026-06-25T15:07:07.237632,15.34426018,.00010094,53.1588,265.7357,78.7968,281.3148,0,U,68049,999,1795,.74702575E-3,.24968E-3,0
STARLINK-36945,2026-041L,2026-06-25T18:57:06.875424,15.34416313,.00012732,53.1579,265.2888,107.0914,253.0228,0,U,68050,999,1797,.10407506E-2,.3497E-3,0
STARLINK-35911,2026-041M,2026-06-25T15:07:55.219008,15.34423561,.00008554,53.1584,267.8496,105.6696,254.4401,0,U,68051,999,1792,.11478189E-2,.38634E-3,0
STARLINK-35808,2026-041N,2026-06-25T12:57:46.431072,15.34424268,.0001128,53.1577,268.0070,87.3673,272.7458,0,U,68052,999,1791,.91347E-3,.30637E-3,0
STARLINK-36919,2026-041P,2026-06-25T15:10:56.968320,15.34425905,.0001128,53.1585,267.8582,106.7891,253.3236,0,U,68053,999,1792,.8982583E-3,.3012E-3,0
STARLINK-36924,2026-041Q,2026-06-25T17:20:18.171456,15.34426270,.00009763,53.1578,265.6087,83.0177,277.0937,0,U,68054,999,1796,.78110644E-3,.26129E-3,0
STARLINK-35998,2026-041R,2026-06-25T16:23:32.463168,15.34419125,.0001089,53.1579,267.4719,70.1601,289.9519,0,U,68055,999,1793,.51196956E-3,.16971E-3,0
STARLINK-36845,2026-041S,2026-06-25T15:43:28.282080,15.34420155,.00012102,53.1580,265.8732,109.6831,250.4303,0,U,68056,999,1795,.87656359E-3,.29375E-3,0
STARLINK-36954,2026-041T,2026-06-25T15:25:17.558976,15.34424774,.000115,53.1584,265.8000,82.1194,277.9939,0,U,68057,999,1795,.82012716E-3,.27456E-3,0
STARLINK-36899,2026-041U,2026-06-25T17:20:58.793280,15.34421410,.00012945,53.1588,267.0247,75.8525,284.2621,0,U,68058,999,1794,.62934385E-3,.20961E-3,0
