STARLINK-36944          
1 68029U 26040Q   26176.81503791  .00013830  00000+0  42988-3 0  9991
2 68029  97.2824 125.3865 0001423  97.7813 262.3591 15.33447538 18037
STARLINK-36942          
1 68030U 26040R   26176.81232438  .00034235  00000+0  10574-2 0  9997
2 68030  97.2825 125.3906 0001777  83.6844 276.4601 15.33462536 18039
STARLINK-36913          
1 68031U 26040S   26176.80962120  .00038275  00000+0  11805-2 0  9991
2 68031  97.2834 125.3889 0001471  90.9069 269.2342 15.33482011 18033
STARLINK-36935          
1 68032U 26040T   26176.85310865  .00027179  00000+0  84094-3 0  9992
2 68032  97.2847 125.4910 0001549  88.0194 272.1226 15.33453412 18045
STARLINK-36947          
1 68033U 26040U   26176.80688734  .00029925  00000+0  92519-3 0  9993
2 68033  97.2821 125.3996 0001550  86.4112 273.7308 15.33458686 18030
STARLINK-36939          
1 68034U 26040V   26176.86126525  .00035364  00000+0  10920-2 0  9994
2 68034  97.2830 125.4734 0001590  86.7398 273.4026 15.33463166 18049
STARLINK-36943          
1 68035U 26040W   26176.85582623  .00031374  00000+0  96980-3 0  9997
2 68035  97.2818 125.4877 0001634  91.5038 268.6392 15.33454239 19176
STARLINK-36906          
1 68036U 26040X   26176.86398282  .00032522  00000+0  10048-2 0  9991
2 68036  97.2838 125.4666 0001617  87.1738 272.9689 15.33464007 18040
STARLINK-36388          
1 68037U 26040Y   26176.85854545  .00031571  00000+0  97578-3 0  9997
2 68037  97.2828 125.4780 0001510  88.9611 271.1805 15.33456911 18044
STARLINK-36895          
1 68038U 26040Z   26176.86670300  .00034893  00000+0  10773-2 0  9995
2 68038  97.2822 125.4715 0001823  88.4751 271.6700 15.33469838 18045
STARLINK-36373          
1 68039U 26040AA  26176.86942099  .00035192  00000+0  10865-2 0  9998
2 68039  97.2826 125.4600 0001715  90.7658 269.3781 15.33470017 18049
STARLINK-36711          
1 68040U 26041A   26176.63838907  .00027711  00000+0  82799-3 0  9992
2 68040  53.1584 265.7859 0001274  84.3463 275.7685 15.34410141 17956
STARLINK-36825          
1 68041U 26041B   26176.62152626  .00024863  00000+0  74393-3 0  9995
2 68041  53.1586 265.6601 0001092  78.7086 281.4039 15.34426648 17955
STARLINK-36925          
1 68042U 26041C   26176.63892128  .00028718  00000+0  85632-3 0  9996
2 68042  53.1589 267.9191 0001067  82.2103 277.9021 15.34456095 17927
STARLINK-36902          
1 68043U 26041D   26176.55905639  .00025266  00000+0  75577-3 0  9992
2 68043  53.1572 268.1228 0000974 111.3368 248.7739 15.34425741 17912
STARLINK-36966          
1 68044U 26041E   26176.62573352  .00033185  00000+0  98824-3 0  9993
2 68044  53.1581 265.7059 0001053  93.4048 266.7076 15.34423052 17953
STARLINK-36864          
1 68045U 26041F   26176.64677387  .00026708  00000+0  79813-3 0  9999
2 68045  53.1586 265.8347 0001200  85.1319 274.9820 15.34425254 17957
STARLINK-36321          
1 68046U 26041G   26176.67669920  .00028289  00000+0  84434-3 0  9998
2 68046  53.1580 267.4366 0001114  86.1624 273.9506 15.34433547 17937
STARLINK-36181          
1 68047U 26041H   26176.66197589  .00023048  00000+0  69190-3 0  9995
2 68047  53.1583 267.3362 0000999  77.4769 282.6346 15.34366740 17938
STARLINK-36318          
1 68048U 26041J   26176.66991731  .00025587  00000+0  76518-3 0  9999
2 68048  53.1578 265.9728 0001197  85.4188 274.6952 15.34427277 17957
STARLINK-36885          
1 68049U 26041K   26176.62994488  .00024968  00000+0  74703-3 0  9994
2 68049  53.1588 265.7357 0001009  78.7968 281.3148 15.34426018 17952
STARLINK-36945          
1 68050U 26041L   26176.78966291  .00034970  00000+0  10408-2 0  9999
2 68050  53.1579 265.2888 0001273 107.0914 253.0228 15.34416313 17972
STARLINK-35911          
1 68051U 26041M   26176.63050022  .00038634  00000+0  11478-2 0  9999
2 68051  53.1584 267.8496 0000855 105.6696 254.4401 15.34423561 17924
STARLINK-35808          
1 68052U 26041N   26176.54012073  .00030637  00000+0  91347-3 0  9993
2 68052  53.1577 268.0070 0001128  87.3673 272.7458 15.34424268 17912
STARLINK-36919          
1 68053U 26041P   26176.63260380  .00030120  00000+0  89826-3 0  9996
2 68053  53.1585 267.8582 0001128 106.7891 253.3236 15.34425905 17924
STARLINK-36924          
1 68054U 26041Q   26176.72243254  .00026129  00000+0  78111-3 0  9997
2 68054  53.1578 265.6087 0000976  83.0177 277.0937 15.34426270 17968
STARLINK-35998          
1 68055U 26041R   26176.68301462  .00016971  00000+0  51197-3 0  9998
2 68055  53.1579 267.4719 0001089  70.1601 289.9519 15.34419125 17933
STARLINK-36845          
1 68056U 26041S   26176.65518845  .00029375  00000+0  87656-3 0  9992
2 68056  53.1580 265.8732 0001210 109.6831 250.4303 15.34420155 17953
STARLINK-36954          
1 68057U 26041T   26176.64256434  .00027456  00000+0  82013-3 0  9995
2 68057  53.1584 265.8000 0001150  82.1194 277.9939 15.34424774 17956
STARLINK-36899          
1 68058U 26041U   26176.72290270  .00020961  00000+0  62934-3 0  9995
2 68058  53.1588 267.0247 0001294  75.8525 284.2621 15.34421410 17946
